{
  "type": "FeatureCollection",
  "features": [
    {
      "type": "Feature",
      "properties": {
        "norad_id": 66872,
        "name": "STARLINK-36082",
        "group": "last-30-days",
        "lat": -18.08669886708391,
        "lon": 100.39768800399078,
        "alt_km": 278.6536447549497,
        "timestamp": "2025-12-12T22:42:11.308143+00:00",
        "meta_object_name": "STARLINK-36082",
        "meta_object_id": "2025-281AA",
        "meta_epoch": "2025-12-11T18:19:35.020128",
        "meta_mean_motion": 15.98118857,
        "meta_eccentricity": 0.00011999,
        "meta_inclination": 43.0008,
        "meta_ra_of_asc_node": 128.3422,
        "meta_arg_of_pericenter": 50.2228,
        "meta_mean_anomaly": 309.8755,
        "meta_ephemeris_type": 0,
        "meta_classification_type": "U",
        "meta_norad_cat_id": 66872,
        "meta_element_set_no": 999,
        "meta_rev_at_epoch": 263,
        "meta_bstar": 0.00081320565,
        "meta_mean_motion_dot": 0.00387239,
        "meta_mean_motion_ddot": 6.9719155e-05,
        "tle_line1": "1 66872U 25281AA  25345.76359977  .00387239  69719-4  81321-3 0  9995",
        "tle_line2": "2 66872  43.0008 128.3422 0001199  50.2228 309.8755 15.98118857  2638"
      },
      "geometry": {
        "type": "Point",
        "coordinates": [
          100.39768800399078,
          -18.08669886708391
        ]
      }
    },
    {
      "type": "Feature",
      "properties": {
        "norad_id": 66873,
        "name": "STARLINK-36128",
        "group": "last-30-days",
        "lat": -21.79895517031994,
        "lon": 95.50528006921128,
        "alt_km": 299.90778033739844,
        "timestamp": "2025-12-12T22:42:11.308154+00:00",
        "meta_object_name": "STARLINK-36128",
        "meta_object_id": "2025-281AB",
        "meta_epoch": "2025-12-12T06:00:00.999648",
        "meta_mean_motion": 15.93340485,
        "meta_eccentricity": 0.00018151,
        "meta_inclination": 43.001,
        "meta_ra_of_asc_node": 125.2538,
        "meta_arg_of_pericenter": 262.1723,
        "meta_mean_anomaly": 30.5007,
        "meta_ephemeris_type": 0,
        "meta_classification_type": "U",
        "meta_norad_cat_id": 66873,
        "meta_element_set_no": 999,
        "meta_rev_at_epoch": 135,
        "meta_bstar": -0.0041500681,
        "meta_mean_motion_dot": -0.01526386,
        "meta_mean_motion_ddot": 0.0006638334,
        "tle_line1": "1 66873U 25281AB  25346.25001157 -.01526386  66383-3 -41501-2 0  9994",
        "tle_line2": "2 66873  43.0010 125.2538 0001815 262.1723  30.5007 15.93340485  1350"
      },
      "geometry": {
        "type": "Point",
        "coordinates": [
          95.50528006921128,
          -21.79895517031994
        ]
      }
    },
    {
      "type": "Feature",
      "properties": {
        "norad_id": 66874,
        "name": "STARLINK-36129",
        "group": "last-30-days",
        "lat": -25.02683529007531,
        "lon": 90.8685783562628,
        "alt_km": 300.1293509992747,
        "timestamp": "2025-12-12T22:42:11.308164+00:00",
        "meta_object_name": "STARLINK-36129",
        "meta_object_id": "2025-281AC",
        "meta_epoch": "2025-12-12T06:00:00.999648",
        "meta_mean_motion": 15.9325851,
        "meta_eccentricity": 0.0001686,
        "meta_inclination": 43.0013,
        "meta_ra_of_asc_node": 125.2671,
        "meta_arg_of_pericenter": 267.2057,
        "meta_mean_anomaly": 20.2944,
        "meta_ephemeris_type": 0,
        "meta_classification_type": "U",
        "meta_norad_cat_id": 66874,
        "meta_element_set_no": 999,
        "meta_rev_at_epoch": 135,
        "meta_bstar": -0.0041201501,
        "meta_mean_motion_dot": -0.01509012,
        "meta_mean_motion_ddot": 0.0006494935,
        "tle_line1": "1 66874U 25281AC  25346.25001157 -.01509012  64949-3 -41202-2 0  9996",
        "tle_line2": "2 66874  43.0013 125.2671 0001686 267.2057  20.2944 15.93258510  1357"
      },
      "geometry": {
        "type": "Point",
        "coordinates": [
          90.8685783562628,
          -25.02683529007531
        ]
      }
    },
    {
      "type": "Feature",
      "properties": {
        "norad_id": 66875,
        "name": "STARLINK-36053",
        "group": "last-30-days",
        "lat": -19.98926137346435,
        "lon": 97.93714417253153,
        "alt_km": 299.64352678231626,
        "timestamp": "2025-12-12T22:42:11.308176+00:00",
        "meta_object_name": "STARLINK-36053",
        "meta_object_id": "2025-281AD",
        "meta_epoch": "2025-12-12T06:00:00.999648",
        "meta_mean_motion": 15.933762,
        "meta_eccentricity": 0.00017508,
        "meta_inclination": 43.0012,
        "meta_ra_of_asc_node": 125.2459,
        "meta_arg_of_pericenter": 265.2946,
        "meta_mean_anomaly": 30.195,
        "meta_ephemeris_type": 0,
        "meta_classification_type": "U",
        "meta_norad_cat_id": 66875,
        "meta_element_set_no": 999,
        "meta_rev_at_epoch": 135,
        "meta_bstar": -0.0041304155,
        "meta_mean_motion_dot": -0.01522065,
        "meta_mean_motion_ddot": 0.00066061652,
        "tle_line1": "1 66875U 25281AD  25346.25001157 -.01522065  66062-3 -41304-2 0  9991",
        "tle_line2": "2 66875  43.0012 125.2459 0001750 265.2946  30.1950 15.93376200  1352"
      },
      "geometry": {
        "type": "Point",
        "coordinates": [
          97.93714417253153,
          -19.98926137346435
        ]
      }
    },
    {
      "type": "Feature",
      "properties": {
        "norad_id": 66876,
        "name": "STARLINK-35702",
        "group": "last-30-days",
        "lat": -23.04548429756467,
        "lon": 93.76483712332166,
        "alt_km": 299.9290869800916,
        "timestamp": "2025-12-12T22:42:11.308186+00:00",
        "meta_object_name": "STARLINK-35702",
        "meta_object_id": "2025-281AE",
        "meta_epoch": "2025-12-12T06:00:00.999648",
        "meta_mean_motion": 15.93299415,
        "meta_eccentricity": 0.0001838,
        "meta_inclination": 43.0015,
        "meta_ra_of_asc_node": 125.2588,
        "meta_arg_of_pericenter": 265.6841,
        "meta_mean_anomaly": 25.0348,
        "meta_ephemeris_type": 0,
        "meta_classification_type": "U",
        "meta_norad_cat_id": 66876,
        "meta_element_set_no": 999,
        "meta_rev_at_epoch": 135,
        "meta_bstar": -0.0041288829,
        "meta_mean_motion_dot": -0.01515442,
        "meta_mean_motion_ddot": 0.00065484982,
        "tle_line1": "1 66876U 25281AE  25346.25001157 -.01515442  65485-3 -41289-2 0  9993",
        "tle_line2": "2 66876  43.0015 125.2588 0001838 265.6841  25.0348 15.93299415  1350"
      },
      "geometry": {
        "type": "Point",
        "coordinates": [
          93.76483712332166,
          -23.04548429756467
        ]
      }
    },
    {
      "type": "Feature",
      "properties": {
        "norad_id": 66877,
        "name": "ZQ-3 R/B",
        "group": "last-30-days",
        "lat": -25.160060126256273,
        "lon": 39.08363692972006,
        "alt_km": 843.193742755434,
        "timestamp": "2025-12-12T22:42:11.308196+00:00",
        "meta_object_name": "ZQ-3 R/B",
        "meta_object_id": "2025-282A",
        "meta_epoch": "2025-12-11T15:34:54.456096",
        "meta_mean_motion": 14.56097159,
        "meta_eccentricity": 0.07931712,
        "meta_inclination": 56.9524,
        "meta_ra_of_asc_node": 61.8427,
        "meta_arg_of_pericenter": 218.0596,
        "meta_mean_anomaly": 136.1784,
        "meta_ephemeris_type": 0,
        "meta_classification_type": "U",
        "meta_norad_cat_id": 66877,
        "meta_element_set_no": 999,
        "meta_rev_at_epoch": 123,
        "meta_bstar": 0.0002423616,
        "meta_mean_motion_dot": 0.01188538,
        "meta_mean_motion_ddot": 7.424357e-06,
        "tle_line1": "1 66877U 25282A   25345.64924139  .01188538  74244-5  24236-3 0  9990",
        "tle_line2": "2 66877  56.9524  61.8427 0793171 218.0596 136.1784 14.56097159  1237"
      },
      "geometry": {
        "type": "Point",
        "coordinates": [
          39.08363692972006,
          -25.160060126256273
        ]
      }
    },
    {
      "type": "Feature",
      "properties": {
        "norad_id": 66906,
        "name": "1998-067XS",
        "group": "last-30-days",
        "lat": 36.67664678639188,
        "lon": -74.76903249392662,
        "alt_km": 409.42315290999886,
        "timestamp": "2025-12-12T22:42:11.308206+00:00",
        "meta_object_name": "1998-067XS",
        "meta_object_id": "1998-067XS",
        "meta_epoch": "2025-12-11T19:50:50.396352",
        "meta_mean_motion": 15.50491702,
        "meta_eccentricity": 0.00036759,
        "meta_inclination": 51.6297,
        "meta_ra_of_asc_node": 146.9447,
        "meta_arg_of_pericenter": 198.3211,
        "meta_mean_anomaly": 161.7647,
        "meta_ephemeris_type": 0,
        "meta_classification_type": "U",
        "meta_norad_cat_id": 66906,
        "meta_element_set_no": 999,
        "meta_rev_at_epoch": 147,
        "meta_bstar": 0.00060264305,
        "meta_mean_motion_dot": 0.00034698,
        "meta_mean_motion_ddot": 0,
        "tle_line1": "1 66906U 98067XS  25345.82697218  .00034698  00000+0  60264-3 0  9999",
        "tle_line2": "2 66906  51.6297 146.9447 0003675 198.3211 161.7647 15.50491702  1478"
      },
      "geometry": {
        "type": "Point",
        "coordinates": [
          -74.76903249392662,
          36.67664678639188
        ]
      }
    }
  ]
}